OBJECT_NAME,OBJECT_ID,EPOCH,MEAN_MOTION,ECCENTRICITY,INCLINATION,RA_OF_ASC_NODE,ARG_OF_PERICENTER,MEAN_ANOMALY,EPHEMERIS_TYPE,CLASSIFICATION_TYPE,NORAD_CAT_ID,ELEMENT_SET_NO,REV_AT_EPOCH,BSTAR,MEAN_MOTION_DOT,MEAN_MOTION_DDOT
INTELSAT 11 (IS-11),2007-044B,2026-07-21T02:42:12.172032,0.99053129,.00044847,3.6516,78.2579,99.1085,138.6910,0,U,32253,999,6878,0,-.239E-5,0
WGS F1 (USA 195),2007-046A,2026-07-21T02:36:50.186880,1.00271568,.00002466,0.0162,81.1965,75.2893,139.0745,0,U,32258,999,5267,0,-.267E-5,0
SKYNET 5B,2007-056B,2026-07-21T06:21:26.263584,1.00270192,.00035988,5.3352,73.0936,44.4903,301.8991,0,U,32294,999,6853,0,.137E-5,0
ASTRA 4A,2007-057A,2026-07-21T06:15:34.327008,1.00274014,.00026949,0.0584,271.4270,212.6970,273.5975,0,U,32299,999,5198,0,.34E-6,0
HORIZONS-2,2007-063B,2026-07-21T06:21:44.716896,1.00272396,.00036585,2.6878,80.2102,20.1546,220.2987,0,U,32388,999,6815,0,-.254E-5,0
THURAYA-3,2008-001A,2026-07-21T03:07:02.291232,1.00274020,.00023777,6.0458,35.8276,80.2793,293.2584,0,U,32404,999,6783,0,.6E-7,0
THOR 5,2008-006A,2026-07-21T06:14:04.470144,1.00273640,.00025735,0.0586,249.0640,236.6553,266.0767,0,U,32487,999,6765,0,-.8E-7,0
AMC-14,2008-011A,2026-07-21T00:10:01.621344,1.00420167,.00389743,24.0492,20.1106,8.5620,354.4432,0,U,32708,999,6851,0,-.212E-5,0
DIRECTV 11,2008-013A,2026-07-21T06:52:03.042048,1.00270757,.00001117,0.0042,231.5363,255.2705,176.0568,0,U,32729,999,4593,0,-.124E-5,0
ICO G1,2008-016A,2026-07-21T06:24:15.465024,1.00272388,.000218,5.5330,36.0320,78.1380,188.0869,0,U,32763,999,6688,0,-.175E-5,0
VINASAT-1,2008-018A,2026-07-21T06:51:53.343648,1.00271880,.00018881,0.0545,267.9492,222.3539,43.6480,0,U,32767,999,6693,0,-.327E-5,0
STAR ONE C2,2008-018B,2026-07-21T05:55:43.728096,1.00267470,.00026717,1.3252,82.1439,28.2919,212.4971,0,U,32768,999,6699,0,-.276E-5,0
AMOS-3,2008-022A,2026-07-21T03:55:38.609184,1.00490234,.00030892,0.5400,85.7300,81.6987,255.3431,0,U,32794,999,8267,0,-.38E-6,0
GALAXY 18 (G-18),2008-024A,2026-07-21T06:43:22.121760,1.00273016,.00031141,0.0146,43.8683,80.4860,152.5354,0,U,32951,999,4619,0,0,0
ZHONGXING-9,2008-028A,2026-07-21T16:56:16.126944,1.00273025,.0003571,0.8547,84.9141,35.0874,165.8901,0,U,33051,999,6638,0,-.247E-5,0
SKYNET 5C,2008-030A,2026-07-21T01:01:10.894944,1.00272541,.00043636,3.8733,76.6384,49.2837,170.3962,0,U,33055,999,6629,0,-.142E-5,0
TURKSAT 3A,2008-030B,2026-07-21T04:43:31.281312,1.00274926,.00050368,0.0141,53.0309,50.6396,308.1479,0,U,33056,999,5269,0,.147E-5,0
ECHOSTAR 11,2008-035A,2026-07-21T06:00:38.849760,1.00272006,.00024117,1.0911,83.7944,28.4863,167.0806,0,U,33207,999,5155,0,-.58E-6,0
SUPERBIRD-C2,2008-038A,2026-07-21T06:53:00.735648,1.00270957,.0006432,2.4467,80.8412,40.2949,57.1626,0,U,33274,999,10607,0,-.307E-5,0
INMARSAT 4-F3,2008-039A,2026-07-21T05:52:38.666208,1.00271004,.00026711,4.3224,31.7030,97.5877,159.8875,0,U,33278,999,4688,0,-.142E-5,0
NIMIQ 4,2008-044A,2026-07-21T05:44:38.702112,1.00270165,.0001785,0.0229,59.8820,53.8883,189.3790,0,U,33373,999,6532,0,-.219E-5,0
GALAXY 19 (G-19),2008-045A,2026-07-21T05:16:28.751808,1.00271536,.0002628,0.0635,253.7768,237.8040,149.5139,0,U,33376,999,6524,0,-.138E-5,0
ASTRA 1M,2008-057A,2026-07-21T06:19:41.431872,1.00272871,.00047302,0.3818,82.8656,43.9173,286.5299,0,U,33436,999,4607,0,.121E-5,0
EUTELSAT HOTBIRD 13C,2008-065A,2026-07-21T05:59:50.833824,1.00269169,.0003621,3.0357,78.7881,41.6847,218.1528,0,U,33459,999,4768,0,-.284E-5,0
EXPRESS-AM44,2009-007A,2026-07-21T06:11:04.757280,1.00271613,.00038474,3.5492,77.9815,32.2210,270.5566,0,U,33595,999,5262,0,-.91E-6,0
NSS-9,2009-008A,2026-07-21T06:32:38.759712,1.00270848,.00023665,1.3477,82.3245,22.5699,115.3629,0,U,33749,999,6386,0,.71E-6,0
TELSTAR 11N,2009-009A,2026-07-21T06:03:35.474688,1.00269625,.00025599,0.0184,47.7529,65.3447,239.2721,0,U,34111,999,4658,0,0,0
WGS F2 (USA 204),2009-017A,2026-07-21T04:48:00.851040,1.00272830,.00003025,0.0150,65.5461,70.7165,292.1995,0,U,34713,999,4595,0,.69E-6,0
SES-7 (PROTOSTAR 2),2009-027A,2026-07-21T06:45:08.990784,1.00270887,.00012716,0.0084,17.5925,173.6313,317.3397,0,U,34941,999,6297,0,-.344E-5,0
MEASAT-3A,2009-032A,2026-07-21T05:04:38.712288,1.00272449,.00029001,0.0227,357.6067,111.3648,66.1584,0,U,35362,999,837,0,-.11E-5,0
EWS-G3 (GOES 14),2009-033A,2026-07-21T06:48:46.143360,1.00095523,.00021793,1.7754,82.6222,38.8378,41.0157,0,U,35491,999,693,0,-.359E-5,0
FM-5,2009-034A,2026-07-21T06:17:18.052800,1.00270188,.00008531,0.0434,254.6471,128.5126,284.0155,0,U,35493,999,4698,0,-.199E-5,0
TERRESTAR-1,2009-035A,2026-07-21T06:00:38.849760,1.00270569,.00025356,5.2021,48.7669,65.2145,164.1963,0,U,35496,999,6247,0,-.59E-6,0
ASIASAT 5,2009-042A,2026-07-21T13:33:32.145696,1.00271256,.0001307,0.0117,43.9922,51.3277,147.9188,0,U,35696,999,6205,0,-.306E-5,0
JCSAT-12 (JCSAT-RA),2009-044A,2026-07-21T06:51:53.343648,1.00269988,.00010941,0.0423,265.3744,278.2441,350.4378,0,U,35755,999,6195,0,-.327E-5,0
OPTUS D3,2009-044B,2026-07-21T03:57:38.713824,1.00271627,.00033475,0.8961,268.1817,211.4981,34.7880,0,U,35756,999,6190,0,-.144E-5,0
NIMIQ 5,2009-050A,2026-07-21T04:55:20.176032,1.00272001,.00029018,0.0228,287.1519,185.0608,187.8885,0,U,35873,999,6168,0,-.256E-5,0
AMAZONAS 2,2009-054A,2026-07-21T05:53:43.919808,1.00272684,.00034055,1.9015,82.6146,32.4265,200.4073,0,U,35942,999,6152,0,-.26E-5,0
COMSATBW-1,2009-054B,2026-07-21T03:06:54.802944,1.00271999,.00029031,0.0657,155.1835,324.3193,289.1185,0,U,35943,999,6164,0,.25E-6,0
NSS-12,2009-058A,2026-07-21T03:05:09.971232,1.00273290,.00049211,0.0773,269.3068,173.5163,319.3518,0,U,36032,999,6125,0,.72E-6,0
THOR 6,2009-058B,2026-07-21T06:13:56.981856,1.00272763,.00018488,0.0150,111.6175,12.6502,267.3925,0,U,36033,999,6134,0,-.9E-7,0
INTELSAT 14 (IS-14),2009-064A,2026-07-21T06:01:20.689824,1.00271923,.00026224,0.0187,53.4796,70.3218,220.5409,0,U,36097,999,6094,0,-.273E-5,0
EUTELSAT 36B,2009-065A,2026-07-21T06:28:33.082176,1.00271750,.00057242,0.5747,81.3686,34.9560,330.3241,0,U,36101,999,6105,0,.113E-5,0
INTELSAT 15 (IS-15),2009-067A,2026-07-21T02:14:38.565024,1.00272370,.00023144,0.0179,48.8879,69.4231,299.3548,0,U,36106,999,4156,0,-.185E-5,0
WGS F3 (USA 211),2009-068A,2026-07-21T05:50:58.094016,1.00273050,.00006263,0.2931,85.7069,55.3630,115.6684,0,U,36108,999,4693,0,.65E-6,0
DIRECTV 12,2009-075A,2026-07-21T06:15:38.528640,1.00272464,.00002613,0.0315,199.8760,4.1372,86.1963,0,U,36131,999,4689,0,-.102E-5,0
BEIDOU-2 G1,2010-001A,2026-07-20T22:21:00.318816,1.00270367,.00018302,4.3711,60.2956,294.9924,59.1117,0,U,36287,999,6050,0,-.283E-5,0
SDO,2010-005A,2026-07-21T04:42:27.771264,1.00277625,.00016475,34.7200,85.8242,43.2128,138.3850,0,U,36395,999,6040,0,-.97E-6,0
INTELSAT 16 (IS-16),2010-006A,2026-07-21T05:49:43.792608,1.00270792,.00026836,0.0176,320.3468,178.7729,171.1026,0,U,36397,999,5999,0,-.244E-5,0
EWS-G2 (GOES 15),2010-008A,2026-07-21T03:06:54.802944,1.00269530,.00054685,1.3691,82.3970,53.6918,272.7805,0,U,36411,999,5997,0,.22E-6,0
ECHOSTAR 14,2010-010A,2026-07-21T06:08:38.557248,1.00273198,.00020777,0.0114,25.9208,78.6865,167.6631,0,U,36499,999,4689,0,.1E-7,0
SES-1,2010-016A,2026-07-21T06:05:06.688896,1.00272164,.00026314,0.0501,271.9153,201.4278,175.9477,0,U,36516,999,5937,0,-.113E-5,0
ASTRA 3B,2010-021A,2026-07-21T06:20:56.312160,1.00272931,.00042497,1.5543,83.1310,27.5120,307.1130,0,U,36581,999,5920,0,.137E-5,0
COMSATBW-2,2010-021B,2026-07-21T06:17:56.599296,1.00269908,.00023696,0.0409,153.7026,333.5600,279.4435,0,U,36582,999,5929,0,.89E-6,0
BEIDOU-2 G3,2010-024A,2026-07-21T15:28:06.727584,1.00273887,.0007235,4.5954,61.3561,359.4237,190.2146,0,U,36590,999,5911,0,-.137E-5,0
BADR-5,2010-025A,2026-07-21T06:22:56.121312,1.00277694,.00057925,0.0352,140.0968,55.1483,229.9995,0,U,36592,999,5355,0,.155E-5,0
COMS 1,2010-032A,2026-07-21T00:21:38.623104,0.99166581,.00114543,4.8900,74.9483,15.1593,153.0036,0,U,36744,999,5142,0,-.183E-5,0
ARABSAT-5A,2010-032B,2026-07-21T06:22:56.121312,1.00270219,.00053741,0.1250,68.9150,56.6673,299.6664,0,U,36745,999,5898,0,.154E-5,0
ECHOSTAR 15,2010-034A,2026-07-21T05:56:58.299072,1.00273839,.00019933,0.0313,283.7986,181.2075,164.4551,0,U,36792,999,5866,0,0,0
BEIDOU-2 IGSO-1,2010-036A,2026-07-19T14:08:33.404064,1.00262639,.00586524,54.3073,162.6674,225.1805,228.5775,0,U,36828,999,5842,0,-.97E-6,0
NILESAT 201,2010-037A,2026-07-21T06:12:12.149280,1.00271153,.00050566,0.0379,216.3728,278.3315,250.3624,0,U,36830,999,5871,0,-.57E-6,0
RASCOM-QAF 1R,2010-037B,2026-07-21T06:15:04.373856,1.00271844,.00060927,0.0178,80.9939,29.3750,285.3129,0,U,36831,999,5864,0,.19E-6,0
AEHF-1 (USA 214),2010-039A,2026-07-21T06:22:48.633024,1.00278380,.0003982,8.3029,67.6027,37.7187,319.4653,0,U,36868,999,5399,0,.143E-5,0
XM-5,2010-053A,2026-07-21T06:08:38.557248,1.00271974,.00011673,0.0639,265.0101,315.7230,55.2492,0,U,37185,999,5782,0,-.22E-6,0
BSAT-3B,2010-056B,2026-07-21T06:45:23.967360,1.00271175,.00028442,0.0614,240.5496,296.0037,333.6775,0,U,37207,999,5244,0,-.349E-5,0
BEIDOU-2 G4,2010-057A,2026-07-20T20:43:57.305280,1.00272843,.00053534,3.7289,68.7401,185.2694,155.5497,0,U,37210,999,5762,0,-.115E-5,0
SKYTERRA 1,2010-061A,2026-07-21T05:52:38.666208,1.00272159,.00026502,5.1957,50.7979,29.9506,205.0829,0,U,37218,999,5753,0,-.121E-5,0
HYLAS 1,2010-065A,2026-07-21T04:43:08.817312,1.00644712,.00011678,5.7274,72.5979,135.8360,201.6930,0,U,37237,999,722,0,.111E-5,0
INTELSAT 17 (IS-17),2010-065B,2026-07-21T03:07:47.219232,1.00272912,.00025779,0.0125,98.2825,35.1385,278.4240,0,U,37238,999,5358,0,-.1E-7,0
BEIDOU-2 IGSO-2,2010-068A,2026-07-19T20:07:19.149312,1.00272665,.00570323,47.4862,271.4234,214.1385,222.1771,0,U,37256,999,5712,0,-.205E-5,0
EUTELSAT KA-SAT 9A,2010-069A,2026-07-21T06:16:49.207296,1.00274880,.00046572,0.0697,336.0738,175.9529,250.2006,0,U,37258,999,4434,0,.63E-6,0
HISPASAT 30W-5,2010-070A,2026-07-21T04:23:03.242688,1.00275528,.00056884,0.0300,187.4635,305.2812,201.9418,0,U,37264,999,5352,0,-.215E-5,0
